NORAD_CAT_ID,OBJECT_NAME,OBJECT_TYPE,EPOCH,MEAN_MOTION,ECCENTRICITY,INCLINATION,RA_OF_ASC_NODE,ARG_OF_PERICENTER,MEAN_ANOMALY,BSTAR,MEAN_MOTION_DOT,MEAN_MOTION_DDOT,TLE_LINE0,TLE_LINE1,TLE_LINE2,SEMIMAJOR_AXIS,PERIOD,APOGEE,PERIGEE,DECAYED
52844.0,STARLINK-4208,PAYLOAD,2022-07-26 22:00:00,15.49809056,0.0001426999999999,53.2161,210.9467,69.8979,80.4942,0.0007832999999999,0.00044137,0.0,0 STARLINK-4208,1 52844U 22062Q   22207.91667824  .00044137  00000-0  78330-3 0  9994,2 52844  53.2161 210.9467 0001427  69.8979  80.4942 15.49809056  1302,6795.420999999999,92.915,418.256,416.316,0.0
52844.0,STARLINK-4208,PAYLOAD,2022-07-27 06:00:02,15.49940787,0.0001301,53.2147,209.3496,62.014,149.3657,-0.0011534,-0.00065497,0.0,0 STARLINK-4208,1 52844U 22062Q   22208.25002315 -.00065497  00000-0 -11534-2 0  9996,2 52844  53.2147 209.3496 0001301  62.0140 149.3657 15.49940787  6744,6795.036,92.907,417.785,416.017,0.0
52844.0,STARLINK-4208,PAYLOAD,2022-07-27 14:00:01,15.49894301,0.0001185,53.2147,207.7564,53.18,219.0907,-0.00090438,-0.0005146,0.0,0 STARLINK-4208,1 52844U 22062Q   22208.58334491 -.00051460  00000-0 -90438-3 0  9991,2 52844  53.2147 207.7564 0001185  53.1800 219.0907 15.49894301  1306,6795.172,92.91,417.842,416.232,0.0
52844.0,STARLINK-4208,PAYLOAD,2022-07-27 22:00:00,15.49845092,0.0001074,53.2149,206.1617,62.1307,271.0478,0.00088698,0.00050141,0.0,0 STARLINK-4208,1 52844U 22062Q   22208.91667824  .00050141  00000-0  88698-3 0  9995,2 52844  53.2149 206.1617 0001074  62.1307 271.0478 15.49845092  1303,6795.316,92.913,417.911,416.451,0.0
52844.0,STARLINK-4208,PAYLOAD,2022-07-28 00:00:00,15.49867301,0.0001137,53.2152,205.7636,64.4939,13.8981,0.00033159,0.00018401,0.0,0 STARLINK-4208,1 52844U 22062Q   22209.00001157  .00018401  00000-0  33159-3 0  9992,2 52844  53.2152 205.7636 0001137  64.4939  13.8981 15.49867301  6852,6795.251,92.911,417.889,416.343,0.0
52844.0,STARLINK-4208,PAYLOAD,2022-07-28 14:00:01,15.49891159,0.0001250999999999,53.2145,202.9771,51.648,43.3151,-0.00033506,-0.00019425,0.0,0 STARLINK-4208,1 52844U 22062Q   22209.58334491 -.00019425  00000-0 -33506-3 0  9990,2 52844  53.2145 202.9771 0001251  51.6480  43.3151 15.49891159  1309,6795.181,92.91,417.896,416.196,0.0
52844.0,STARLINK-4208,PAYLOAD,2022-07-28 22:00:00,15.49867687,0.0001149,53.2147,201.3834,63.4882,92.3885,0.00070009,0.00039458,0.0,0 STARLINK-4208,1 52844U 22062Q   22209.91667824  .00039458  00000-0  70009-3 0  9991,2 52844  53.2147 201.3834 0001149  63.4882  92.3885 15.49867687  1304,6795.25,92.911,417.896,416.334,0.0
52844.0,STARLINK-4208,PAYLOAD,2022-07-29 00:00:00,15.49884084,0.0001173,53.2152,200.986,65.7708,195.326,0.00038215,0.00021296,0.0,0 STARLINK-4208,1 52844U 22062Q   22210.00001157  .00021296  00000-0  38215-3 0  9998,2 52844  53.2152 200.9860 0001173  65.7708 195.3260 15.49884084  7018,6795.2019999999975,92.91,417.864,416.27,0.0
52844.0,STARLINK-4208,PAYLOAD,2022-07-29 06:00:00,15.50079113,0.0001317,53.2162,199.7965,58.4324,158.3238,-0.010829,-0.00575833,0.0,0 STARLINK-4208,1 52844U 22062Q   22210.25001157 -.00575833  00000-0 -10829-1 0  9997,2 52844  53.2162 199.7965 0001317  58.4324 158.3238 15.50079113  7052,6794.632,92.898,417.392,415.602,0.0
52844.0,STARLINK-4208,PAYLOAD,2022-07-29 14:00:01,15.4977156,0.0001097,53.2165,198.2065,62.0619,215.5775,-0.016012,-0.00828349,0.0,0 STARLINK-4208,1 52844U 22062Q   22210.58334491 -.00828349  00000-0 -16012-1 0  9996,2 52844  53.2165 198.2065 0001097  62.0619 215.5775 15.49771560  1300,6795.531,92.917,418.141,416.65,0.0
52844.0,STARLINK-4208,PAYLOAD,2022-07-29 22:00:00,15.49170858,0.0001179,53.2173,196.6157,61.9632,276.1056,-0.02224,-0.01111804,0.0,0 STARLINK-4208,1 52844U 22062Q   22210.91667824 -.01111804  00000-0 -22240-1 0  9994,2 52844  53.2173 196.6157 0001179  61.9632 276.1056 15.49170858  7154,6797.2869999999975,92.953,419.954,418.351,0.0
52844.0,STARLINK-4208,PAYLOAD,2022-07-30 14:00:01,15.47566765,0.0001224,53.2172,193.441,65.2064,31.0273,-0.023577,-0.01129931,0.0,0 STARLINK-4208,1 52844U 22062Q   22211.58334491 -.01129931  00000-0 -23577-1 0  9993,2 52844  53.2172 193.4410 0001224  65.2064  31.0273 15.47566765  7251,6801.984,93.049,424.681,423.016,0.0
52844.0,STARLINK-4208,PAYLOAD,2022-07-30 22:00:00,15.46763884,0.0001394,53.2174,191.8545,62.332,91.538,-0.024239,-0.01129627,0.0,0 STARLINK-4208,1 52844U 22062Q   22211.91667824 -.01129627  00000-0 -24239-1 0  9997,2 52844  53.2174 191.8545 0001394  62.3320  91.5380 15.46763884  1305,6804.337,93.098,427.151,425.254,0.0
52844.0,STARLINK-4208,PAYLOAD,2022-07-31 06:00:02,15.45960024,0.0001573,53.2173,190.2733,52.9378,157.6668,-0.024884,-0.01127978,0.0,0 STARLINK-4208,1 52844U 22062Q   22212.25002315 -.01127978  00000-0 -24884-1 0  9996,2 52844  53.2173 190.2733 0001573  52.9378 157.6668 15.45960024  7362,6806.696,93.146,429.631,427.49,0.0
52844.0,STARLINK-4208,PAYLOAD,2022-07-31 14:00:01,15.45159431,0.0001266,53.2173,188.6912,67.1193,199.1271,-0.025687,-0.01132179,0.0,0 STARLINK-4208,1 52844U 22062Q   22212.58334491 -.01132179  00000-0 -25687-1 0  9996,2 52844  53.2173 188.6912 0001266  67.1193 199.1271 15.45159431  1305,6809.047,93.194,431.774,430.05,0.0
52844.0,STARLINK-4208,PAYLOAD,2022-07-31 22:00:00,15.44353177,0.0001284,53.2176,187.1107,56.6828,264.3064,-0.026239,-0.01125555,0.0,0 STARLINK-4208,1 52844U 22062Q   22212.91667824 -.01125555  00000-0 -26239-1 0  9996,2 52844  53.2176 187.1107 0001284  56.6828 264.3064 15.44353177  7466,6811.416,93.243,434.156,432.407,0.0
52844.0,STARLINK-4208,PAYLOAD,2022-08-01 14:00:01,15.427492,0.0001273,53.2174,183.9587,56.6215,10.9552,-0.027798,-0.01128793,0.0,0 STARLINK-4208,1 52844U 22062Q   22213.58334491 -.01128793  00000-0 -27798-1 0  9999,2 52844  53.2174 183.9587 0001273  56.6215  10.9552 15.42749200  1306,6816.137,93.34,438.869,437.134,0.0
52844.0,STARLINK-4208,PAYLOAD,2022-08-01 22:00:00,15.41945011,0.0001575,53.2177,182.3841,46.9696,72.4548,-0.028481,-0.01125908,0.0,0 STARLINK-4208,1 52844U 22062Q   22213.91667824 -.01125908  00000-0 -28481-1 0  9990,2 52844  53.2177 182.3841 0001575  46.9696  72.4548 15.41945011  1300,6818.505999999999,93.389,441.445,439.297,0.0
52844.0,STARLINK-4208,PAYLOAD,2022-08-02 06:00:02,15.41142667,0.0001625,53.2176,180.8144,51.1613,119.208,-0.029283,-0.0112679,0.0,0 STARLINK-4208,1 52844U 22062Q   22214.25002315 -.01126790  00000-0 -29283-1 0  9997,2 52844  53.2176 180.8144 0001625  51.1613 119.2080 15.41142667  7663,6820.873000000001,93.437,443.846,441.629,0.0
52844.0,STARLINK-4208,PAYLOAD,2022-08-02 14:00:01,15.40341559,0.0001416,53.2174,179.2435,61.9647,158.2581,-0.030177,-0.01130183,0.0,0 STARLINK-4208,1 52844U 22062Q   22214.58334491 -.01130183  00000-0 -30177-1 0  9991,2 52844  53.2174 179.2435 0001416  61.9647 158.2581 15.40341559  1304,6823.236999999999,93.486,446.069,444.136,0.0
52844.0,STARLINK-4208,PAYLOAD,2022-08-03 06:00:00,15.38734811,0.0001428,53.2175,176.1108,49.6467,267.5155,-0.0317519999999999,-0.01127784,0.0,0 STARLINK-4208,1 52844U 22062Q   22215.25001157 -.01127784  00000-0 -31752-1 0  9999,2 52844  53.2175 176.1108 0001428  49.6467 267.5155 15.38734811  7822,6827.986999999999,93.583,450.827,448.876,0.0
52844.0,STARLINK-4208,PAYLOAD,2022-08-03 14:00:01,15.37932176,0.0001203,53.2174,174.5454,59.124,305.0622,-0.0326339999999999,-0.01128803,0.0,0 STARLINK-4208,1 52844U 22062Q   22215.58334491 -.01128803  00000-0 -32634-1 0  9998,2 52844  53.2174 174.5454 0001203  59.1240 305.0622 15.37932176  1300,6830.361999999999,93.632,453.049,451.405,0.0
52844.0,STARLINK-4208,PAYLOAD,2022-08-03 22:00:01,15.371268400000002,0.0001258,53.2175,172.9827,61.1478,349.1614,-0.033345,-0.01123911,0.0,0 STARLINK-4208,1 52844U 22062Q   22215.91668981 -.01123911  00000-0 -33345-1 0  9994,2 52844  53.2175 172.9827 0001258  61.1478 349.1614 15.37126840  1306,6832.746999999999,93.681,455.472,453.753,0.0
52844.0,STARLINK-4208,PAYLOAD,2022-08-04 06:00:00,15.36325373,0.0001385,53.2175,171.4243,59.0775,36.2593,-0.034306,-0.01126379,0.0,0 STARLINK-4208,1 52844U 22062Q   22216.25001157 -.01126379  00000-0 -34306-1 0  9997,2 52844  53.2175 171.4243 0001385  59.0775  36.2593 15.36325373  7979,6835.124,93.73,457.935,456.042,0.0
52844.0,STARLINK-4208,PAYLOAD,2022-08-04 14:00:01,15.35522385,0.0001359,53.2175,169.8646,65.846,73.6202,-0.035198,-0.01126075,0.0,0 STARLINK-4208,1 52844U 22062Q   22216.58334491 -.01126075  00000-0 -35198-1 0  9996,2 52844  53.2175 169.8646 0001359  65.8460  73.6202 15.35522385  1308,6837.505999999999,93.779,460.301,458.442,0.0
52844.0,STARLINK-4208,PAYLOAD,2022-08-04 22:00:00,15.34717956,0.000155,53.2177,168.3078,56.2532,126.3771,-0.036011,-0.01122998,0.0,0 STARLINK-4208,1 52844U 22062Q   22216.91667824 -.01122998  00000-0 -36011-1 0  9997,2 52844  53.2177 168.3078 0001550  56.2532 126.3771 15.34717956  1306,6839.895,93.828,462.821,460.7,0.0
52844.0,STARLINK-4208,PAYLOAD,2022-08-05 06:00:02,15.33914384,0.0001508,53.2175,166.755,60.0089,164.8832,-0.036902,-0.01121687,0.0,0 STARLINK-4208,1 52844U 22062Q   22217.25002315 -.01121687  00000-0 -36902-1 0  9996,2 52844  53.2175 166.7550 0001508  60.0089 164.8832 15.33914384  8130,6842.284000000002,93.877,465.181,463.117,0.0
52844.0,STARLINK-4208,PAYLOAD,2022-08-05 14:00:01,15.3311478,0.0001361999999999,53.2175,165.2008,61.6073,204.5187,-0.038076,-0.0112769,0.0,0 STARLINK-4208,1 52844U 22062Q   22217.58335648 -.01127690  00000-0 -38076-1 0  9994,2 52844  53.2175 165.2008 0001362  61.6073 204.5187 15.33114780  1309,6844.663000000001,93.926,467.46,465.596,0.0
52844.0,STARLINK-4208,PAYLOAD,2022-08-05 22:00:00,15.32310007,0.0001286999999999,53.2175,163.6498,65.8264,240.5054,-0.038903,-0.01123559,0.0,0 STARLINK-4208,1 52844U 22062Q   22217.91667824 -.01123559  00000-0 -38903-1 0  9994,2 52844  53.2175 163.6498 0001287  65.8264 240.5054 15.32310007  1300,6847.059,93.976,469.805,468.043,0.0
